NORAD_CAT_ID,OBJECT_NAME,OBJECT_TYPE,EPOCH,MEAN_MOTION,ECCENTRICITY,INCLINATION,RA_OF_ASC_NODE,ARG_OF_PERICENTER,MEAN_ANOMALY,BSTAR,MEAN_MOTION_DOT,MEAN_MOTION_DDOT,TLE_LINE0,TLE_LINE1,TLE_LINE2,SEMIMAJOR_AXIS,PERIOD,APOGEE,PERIGEE,DECAYED
53894.0,STARLINK-5043,PAYLOAD,2023-01-26 10:00:49,15.08848075,0.0001323,53.2193,34.0518,92.1176,267.9968,-5.685800000000001e-06,-3.78e-06,0.0,0 STARLINK-5043,1 53894U 22119J   23026.41724071 -.00000378  00000-0 -56858-5 0  9990,2 53894  53.2193  34.0518 0001323  92.1176 267.9968 15.08848075 19429,6917.856,95.437,540.636,538.805,0.0
53894.0,STARLINK-5043,PAYLOAD,2023-01-27 06:40:50,15.08834468,0.0001088,53.2198,30.1842,102.624,257.4874,0.00018369,2.636e-05,0.0,0 STARLINK-5043,1 53894U 22119J   23027.27836091  .00002636  00000-0  18369-3 0  9991,2 53894  53.2198  30.1842 0001088 102.6240 257.4874 15.08834468 19553,6917.897,95.438,540.515,539.01,0.0
53894.0,STARLINK-5043,PAYLOAD,2023-01-28 09:42:23,15.08841421,0.0001166,53.2184,25.1318,89.1923,270.9202,-1.4146e-05,-5.13e-06,0.0,0 STARLINK-5043,1 53894U 22119J   23028.40444418 -.00000513  00000-0 -14146-4 0  9999,2 53894  53.2184  25.1318 0001166  89.1923 270.9202 15.08841421 19725,6917.876,95.437,540.548,538.934,0.0
53894.0,STARLINK-5043,PAYLOAD,2023-01-29 09:33:10,15.08845705,0.0001137,53.2192,20.6724,89.4302,270.682,6.6396e-07,-2.77e-06,0.0,0 STARLINK-5043,1 53894U 22119J   23029.39804084 -.00000277  00000-0  66396-6 0  9999,2 53894  53.2192  20.6724 0001137  89.4302 270.6820 15.08845705 20293,6917.863,95.437,540.515,538.941,0.0
53894.0,STARLINK-5043,PAYLOAD,2023-01-29 23:51:39,15.08831372,0.0001039,53.2188,17.9959,88.003,272.1081,-2.5131e-05,-6.88e-06,0.0,0 STARLINK-5043,1 53894U 22119J   23029.99421242 -.00000688  00000-0 -25131-4 0  9993,2 53894  53.2188  17.9959 0001039  88.0030 272.1081 15.08831372 19964,6917.907,95.438,540.491,539.053,0.0
53894.0,STARLINK-5043,PAYLOAD,2023-01-30 09:23:58,15.08839832,0.0001131,53.2206,16.2127,91.9495,268.1627,4.6013e-05,4.45e-06,0.0,0 STARLINK-5043,1 53894U 22119J   23030.39164546  .00000445  00000-0  46013-4 0  9991,2 53894  53.2206  16.2127 0001131  91.9495 268.1627 15.08839832 20024,6917.881,95.438,540.528,538.963,0.0
53894.0,STARLINK-5043,PAYLOAD,2023-01-30 22:07:05,15.08816097,0.0001517,53.2197,13.8334,85.3741,274.7425,-9.9764e-05,-1.874e-05,0.0,0 STARLINK-5043,1 53894U 22119J   23030.92159226 -.00001874  00000-0 -99764-4 0  9999,2 53894  53.2197  13.8334 0001517  85.3741 274.7425 15.08816097 20527,6917.953,95.439,540.868,538.769,0.0
53894.0,STARLINK-5043,PAYLOAD,2023-01-30 23:42:28,15.08817158,0.0001101,53.2196,13.5358,96.4308,263.681,-0.00015077,-2.685e-05,0.0,0 STARLINK-5043,1 53894U 22119J   23030.98783291 -.00002685  00000-0 -15077-3 0  9995,2 53894  53.2196  13.5358 0001101  96.4308 263.6810 15.08817158 20119,6917.95,95.439,540.577,539.054,0.0
53894.0,STARLINK-5043,PAYLOAD,2023-01-31 07:39:24,15.08824501,0.0001104,53.2198,12.049,95.6466,264.4652,-8.1546e-05,-1.585e-05,0.0,0 STARLINK-5043,1 53894U 22119J   23031.31902983 -.00001585  00000-0 -81546-4 0  9997,2 53894  53.2198  12.0490 0001104  95.6466 264.4652 15.08824501 20169,6917.928,95.439,540.557,539.029,0.0
53894.0,STARLINK-5043,PAYLOAD,2023-01-31 21:57:51,15.08835042,0.0001044,53.2203,9.3726,106.098,254.0127,7.1954e-05,8.57e-06,0.0,0 STARLINK-5043,1 53894U 22119J   23031.91518101  .00000857  00000-0  71954-4 0  9999,2 53894  53.2203   9.3726 0001044 106.0980 254.0127 15.08835042 20678,6917.896,95.438,540.483,539.038,0.0
53894.0,STARLINK-5043,PAYLOAD,2023-02-01 02:44:00,15.08847388,0.0001119,53.2206,8.4812,105.1246,254.987,9.8437e-05,1.279e-05,0.0,0 STARLINK-5043,1 53894U 22119J   23032.11389276  .00001279  00000-0  98437-4 0  9995,2 53894  53.2206   8.4812 0001119 105.1246 254.9870 15.08847388 20282,6917.858,95.437,540.497,538.949,0.0
53894.0,STARLINK-5043,PAYLOAD,2023-02-01 07:30:09,15.08855767,0.0001179,53.2197,7.5886,100.6262,259.4863,0.00015583,2.194e-05,0.0,0 STARLINK-5043,1 53894U 22119J   23032.31260488  .00002194  00000-0  15583-3 0  9997,2 53894  53.2197   7.5886 0001179 100.6262 259.4863 15.08855767 20312,6917.832,95.437,540.513,538.882,0.0
53894.0,STARLINK-5043,PAYLOAD,2023-02-02 04:10:10,15.08838825,0.0001262,53.2201,3.7233,111.2825,248.8302,0.00014524,2.024e-05,0.0,0 STARLINK-5043,1 53894U 22119J   23033.17373728  .00002024  00000-0  14524-3 0  9990,2 53894  53.2201   3.7233 0001262 111.2825 248.8302 15.08838825 20448,6917.884,95.438,540.622,538.876,0.0
53894.0,STARLINK-5043,PAYLOAD,2023-02-02 07:20:56,15.08845051,0.000126,53.2197,3.1279,106.2374,253.8757,0.00019333,2.791e-05,0.0,0 STARLINK-5043,1 53894U 22119J   23033.30621229  .00002791  00000-0  19333-3 0  9991,2 53894  53.2197   3.1279 0001260 106.2374 253.8757 15.08845051 20884,6917.865,95.437,540.602,538.858,0.0
53894.0,STARLINK-5043,PAYLOAD,2023-02-03 07:11:42,15.08865572,0.0001239,53.2194,358.6675,105.8442,254.2687,6.1121e-05,6.86e-06,0.0,0 STARLINK-5043,1 53894U 22119J   23034.29979684  .00000686  00000-0  61121-4 0  9995,2 53894  53.2194 358.6675 0001239 105.8442 254.2687 15.08865572 20614,6917.802,95.436,540.524,538.81,0.0
53894.0,STARLINK-5043,PAYLOAD,2023-02-04 03:51:44,15.08844114,0.0001189,53.2197,354.8026,91.0498,269.063,-4.4589e-05,-9.97e-06,0.0,0 STARLINK-5043,1 53894U 22119J   23035.16093116 -.00000997  00000-0 -44589-4 0  9995,2 53894  53.2197 354.8026 0001189  91.0498 269.0630 15.08844114 20741,6917.868,95.437,540.555,538.91,0.0
53894.0,STARLINK-5043,PAYLOAD,2023-02-04 07:02:30,15.08847162,0.0001232,53.2196,354.2073,91.4654,268.6479,-1.8691e-05,-5.85e-06,0.0,0 STARLINK-5043,1 53894U 22119J   23035.29340783 -.00000585  00000-0 -18691-4 0  9992,2 53894  53.2196 354.2073 0001232  91.4654 268.6479 15.08847162 21184,6917.858,95.437,540.576,538.871,0.0
53894.0,STARLINK-5043,PAYLOAD,2023-02-05 03:42:31,15.08846938,0.0001153,53.2201,350.3424,86.9109,273.2015,-6.0071e-05,-1.244e-05,0.0,0 STARLINK-5043,1 53894U 22119J   23036.15452791 -.00001244  00000-0 -60071-4 0  9993,2 53894  53.2201 350.3424 0001153  86.9109 273.2015 15.08846938 21317,6917.859,95.437,540.522,538.927,0.0
53894.0,STARLINK-5043,PAYLOAD,2023-02-05 21:11:46,15.08832765,0.0001083,53.22,347.0733,79.2418,280.8696,1.1067e-05,-1.12e-06,0.0,0 STARLINK-5043,1 53894U 22119J   23036.88317722 -.00000112  00000-0  11067-4 0  9990,2 53894  53.2200 347.0733 0001083  79.2418 280.8696 15.08832765 21426,6917.903,95.438,540.517,539.018,0.0
53894.0,STARLINK-5043,PAYLOAD,2023-02-06 03:33:18,15.08840373,0.0001027,53.2201,345.8841,78.8886,281.2222,7.2443e-05,8.65e-06,0.0,0 STARLINK-5043,1 53894U 22119J   23037.14813036  .00000865  00000-0  72443-4 0  9998,2 53894  53.2201 345.8841 0001027  78.8886 281.2222 15.08840373 21047,6917.879,95.438,540.455,539.034,0.0
53894.0,STARLINK-5043,PAYLOAD,2023-02-06 21:02:33,15.08835303,0.0001074,53.2193,342.613,102.6234,257.4879,0.0001021,1.337e-05,0.0,0 STARLINK-5043,1 53894U 22119J   23037.87677388  .00001337  00000-0  10210-3 0  9994,2 53894  53.2193 342.6130 0001074 102.6234 257.4879 15.08835303 21576,6917.895,95.438,540.503,539.017,0.0
53894.0,STARLINK-5043,PAYLOAD,2023-02-07 03:24:05,15.08839845,0.0001035,53.2203,341.4267,95.6515,264.4595,0.00017984,2.576e-05,0.0,0 STARLINK-5043,1 53894U 22119J   23038.14172964  .00002576  00000-0  17984-3 0  9996,2 53894  53.2203 341.4267 0001035  95.6515 264.4595 15.08839845 21619,6917.881,95.438,540.462,539.03,0.0
53894.0,STARLINK-5043,PAYLOAD,2023-02-08 03:14:52,15.08850293,0.0001016,53.219,336.963,82.2647,277.846,8.3122e-05,1.036e-05,0.0,0 STARLINK-5043,1 53894U 22119J   23039.13532469  .00001036  00000-0  83122-4 0  9994,2 53894  53.2190 336.9630 0001016  82.2647 277.8460 15.08850293 21343,6917.849,95.437,540.417,539.011,0.0
53894.0,STARLINK-5043,PAYLOAD,2023-02-08 14:22:34,15.08837497,0.0001095,53.2195,334.8829,105.5911,254.5202,-1.4515e-05,-5.19e-06,0.0,0 STARLINK-5043,1 53894U 22119J   23039.59901382 -.00000519  00000-0 -14515-4 0  9995,2 53894  53.2195 334.8829 0001095 105.5911 254.5202 15.08837497 21410,6917.888,95.438,540.511,538.996,0.0
53894.0,STARLINK-5043,PAYLOAD,2023-02-09 03:05:39,15.08845121,0.0001159,53.2187,332.502,94.7173,265.3952,7.4256e-05,8.94e-06,0.0,0 STARLINK-5043,1 53894U 22119J   23040.12892977  .00000894  00000-0  74256-4 0  9997,2 53894  53.2187 332.5020 0001159  94.7173 265.3952 15.08845121 21919,6917.865,95.437,540.532,538.928,0.0
53894.0,STARLINK-5043,PAYLOAD,2023-02-09 14:13:22,15.08838368,0.0001047,53.2189,330.4225,86.2642,273.847,6.5936e-06,-1.83e-06,0.0,0 STARLINK-5043,1 53894U 22119J   23040.59261614 -.00000183  00000-0  65936-5 0  9994,2 53894  53.2189 330.4225 0001047  86.2642 273.8470 15.08838368 21989,6917.885,95.438,540.475,539.026,0.0
53894.0,STARLINK-5043,PAYLOAD,2023-02-09 22:10:17,15.08839972,0.0001223,53.2183,328.9345,79.4001,280.7128,-2.8553e-05,-7.42e-06,0.0,0 STARLINK-5043,1 53894U 22119J   23040.92381806 -.00000742  00000-0 -28553-4 0  9992,2 53894  53.2183 328.9345 0001223  79.4001 280.7128 15.08839972 21616,6917.88,95.438,540.592,538.899,0.0
53894.0,STARLINK-5043,PAYLOAD,2023-02-10 01:21:02,15.08858898,0.0001528,53.2201,328.3372,57.0371,303.0768,0.00011327,1.516e-05,0.0,0 STARLINK-5043,1 53894U 22119J   23041.05628247  .00001516  00000-0  11327-3 0  9998,2 53894  53.2201 328.3372 0001528  57.0371 303.0768 15.08858898 22057,6917.823,95.436,540.745,538.631,0.0
53894.0,STARLINK-5043,PAYLOAD,2023-02-10 04:31:48,15.08861942,0.0001326,53.2199,327.7416,70.3115,289.8021,0.00013098,1.798e-05,0.0,0 STARLINK-5043,1 53894U 22119J   23041.18875844  .00001798  00000-0  13098-3 0  9998,2 53894  53.2199 327.7416 0001326  70.3115 289.8021 15.08861942 21657,6917.813,95.436,540.596,538.761,0.0
53894.0,STARLINK-5043,PAYLOAD,2023-02-10 20:25:41,15.08839604,9.98e-05,53.219,324.7723,84.5427,275.5678,0.00014381,2.002e-05,0.0,0 STARLINK-5043,1 53894U 22119J   23041.85117054  .00002002  00000-0  14381-3 0  9999,2 53894  53.2190 324.7723 0000998  84.5427 275.5678 15.08839604 22171,6917.882,95.438,540.437,539.056,0.0
